{"type": "FeatureCollection", "features": [ {"type": "Feature", "properties": {"norad_id": 35982, "name": "COSMOS 2251 DEB", "group": "cosmos-2251-debris", "lat": -51.297578658600386, "lon": -61.863588836811665, "alt_km": 678.8104744827706, "timestamp": "2025-12-27T07:26:25.617516+00:00", "meta": {"OBJECT_NAME": "COSMOS 2251 DEB", "OBJECT_ID": "1993-036AVY", "EPOCH": "2025-12-26T13:37:53.388192", "MEAN_MOTION": 14.62835582, "ECCENTRICITY": 0.0064596, "INCLINATION": 74.0586, "RA_OF_ASC_NODE": 320.4565, "ARG_OF_PERICENTER": 22.8073, "MEAN_ANOMALY": 337.594, "EPHEMERIS_TYPE": 0, "CLASSIFICATION_TYPE": "U", "NORAD_CAT_ID": 35982, "ELEMENT_SET_NO": 999, "REV_AT_EPOCH": 86368, "BSTAR": 0.00075595, "MEAN_MOTION_DOT": 3.949e-05, "MEAN_MOTION_DDOT": 0}, "tle": {"line1": "1 35982U 93036AVY 25360.56797903  .00003949  00000+0  75595-3 0  9998", "line2": "2 35982  74.0586 320.4565 0064596  22.8073 337.5940 14.62835582863682"}}, "geometry": {"type": "Point", "coordinates": [-61.863588836811665, -51.297578658600386]}}, {"type": "Feature", "properties": {"norad_id": 35987, "name": "COSMOS 2251 DEB", "group": "cosmos-2251-debris", "lat": -8.825198617023899, "lon": -63.0311140181916, "alt_km": 740.140798321594, "timestamp": "2025-12-27T07:26:25.617526+00:00", "meta": {"OBJECT_NAME": "COSMOS 2251 DEB", "OBJECT_ID": "1993-036AWD", "EPOCH": "2025-12-24T02:57:19.909440", "MEAN_MOTION": 14.43193556, "ECCENTRICITY": 0.00463714, "INCLINATION": 74.0006, "RA_OF_ASC_NODE": 305.4518, "ARG_OF_PERICENTER": 67.5999, "MEAN_ANOMALY": 293.006, "EPHEMERIS_TYPE": 0, "CLASSIFICATION_TYPE": "U", "NORAD_CAT_ID": 35987, "ELEMENT_SET_NO": 999, "REV_AT_EPOCH": 61229, "BSTAR": 0.0010350673, "MEAN_MOTION_DOT": 3.5e-05, "MEAN_MOTION_DDOT": 0}, "tle": {"line1": "1 35987U 93036AWD 25358.12314710  .00003500  00000+0  10351-2 0  9994", "line2": "2 35987  74.0006 305.4518 0046371  67.5999 293.0060 14.43193556612294"}}, "geometry": {"type": "Point", "coordinates": [-63.0311140181916, -8.825198617023899]}}, {"type": "Feature", "properties": {"norad_id": 35989, "name": "COSMOS 2251 DEB", "group": "cosmos-2251-debris", "lat": 70.73050101049954, "lon": -48.00661133719327, "alt_km": 764.5501731608147, "timestamp": "2025-12-27T07:26:25.617536+00:00", "meta": {"OBJECT_NAME": "COSMOS 2251 DEB", "OBJECT_ID": "1993-036AWF", "EPOCH": "2025-12-24T23:56:32.042112", "MEAN_MOTION": 14.37117846, "ECCENTRICITY": 0.00225269, "INCLINATION": 74.0381, "RA_OF_ASC_NODE": 261.2904, "ARG_OF_PERICENTER": 340.4505, "MEAN_ANOMALY": 19.5782, "EPHEMERIS_TYPE": 0, "CLASSIFICATION_TYPE": "U", "NORAD_CAT_ID": 35989, "ELEMENT_SET_NO": 999, "REV_AT_EPOCH": 87355, "BSTAR": 0.00020115023, "MEAN_MOTION_DOT": 5.73e-06, "MEAN_MOTION_DDOT": 0}, "tle": {"line1": "1 35989U 93036AWF 25358.99759308  .00000573  00000+0  20115-3 0  9994", "line2": "2 35989  74.0381 261.2904 0022526 340.4505  19.5782 14.37117846873553"}}, "geometry": {"type": "Point", "coordinates": [-48.00661133719327, 70.73050101049954]}}, {"type": "Feature", "properties": {"norad_id": 35993, "name": "COSMOS 2251 DEB", "group": "cosmos-2251-debris", "lat": -3.160697541476124, "lon": -56.18325838027386, "alt_km": 692.6236163429703, "timestamp": "2025-12-27T07:26:25.617546+00:00", "meta": {"OBJECT_NAME": "COSMOS 2251 DEB", "OBJECT_ID": "1993-036AWK", "EPOCH": "2025-12-21T03:59:29.501088", "MEAN_MOTION": 14.65356197, "ECCENTRICITY": 0.0028516, "INCLINATION": 74.0154, "RA_OF_ASC_NODE": 316.5577, "ARG_OF_PERICENTER": 143.4068, "MEAN_ANOMALY": 216.9056, "EPHEMERIS_TYPE": 0, "CLASSIFICATION_TYPE": "U", "NORAD_CAT_ID": 35993, "ELEMENT_SET_NO": 999, "REV_AT_EPOCH": 60566, "BSTAR": 0.00046927088, "MEAN_MOTION_DOT": 2.519e-05, "MEAN_MOTION_DDOT": 0}, "tle": {"line1": "1 35993U 93036AWK 25355.16631367  .00002519  00000+0  46927-3 0  9990", "line2": "2 35993  74.0154 316.5577 0028516 143.4068 216.9056 14.65356197605663"}}, "geometry": {"type": "Point", "coordinates": [-56.18325838027386, -3.160697541476124]}}, {"type": "Feature", "properties": {"norad_id": 35996, "name": "COSMOS 2251 DEB", "group": "cosmos-2251-debris", "lat": -44.51971874960104, "lon": -90.28128518831062, "alt_km": 519.4573587940795, "timestamp": "2025-12-27T07:26:25.617556+00:00", "meta": {"OBJECT_NAME": "COSMOS 2251 DEB", "OBJECT_ID": "1993-036AWN", "EPOCH": "2025-12-15T22:25:06.327264", "MEAN_MOTION": 15.09228347, "ECCENTRICITY": 0.00876626, "INCLINATION": 74.0159, "RA_OF_ASC_NODE": 96.8248, "ARG_OF_PERICENTER": 187.0066, "MEAN_ANOMALY": 172.9909, "EPHEMERIS_TYPE": 0, "CLASSIFICATION_TYPE": "U", "NORAD_CAT_ID": 35996, "ELEMENT_SET_NO": 999, "REV_AT_EPOCH": 72374, "BSTAR": 0.00054952121, "MEAN_MOTION_DOT": 9.536e-05, "MEAN_MOTION_DDOT": 0}, "tle": {"line1": "1 35996U 93036AWN 25349.93410101  .00009536  00000+0  54952-3 0  9995", "line2": "2 35996  74.0159  96.8248 0087662 187.0066 172.9909 15.09228347723745"}}, "geometry": {"type": "Point", "coordinates": [-90.28128518831062, -44.51971874960104]}}, {"type": "Feature", "properties": {"norad_id": 35997, "name": "COSMOS 2251 DEB", "group": "cosmos-2251-debris", "lat": 19.493729083523835, "lon": -25.93030267559054, "alt_km": 718.3908858872574, "timestamp": "2025-12-27T07:26:25.617567+00:00", "meta": {"OBJECT_NAME": "COSMOS 2251 DEB", "OBJECT_ID": "1993-036AWP", "EPOCH": "2025-12-26T17:28:19.417728", "MEAN_MOTION": 14.51384876, "ECCENTRICITY": 0.00153664, "INCLINATION": 74.0424, "RA_OF_ASC_NODE": 160.9776, "ARG_OF_PERICENTER": 237.5823, "MEAN_ANOMALY": 122.3852, "EPHEMERIS_TYPE": 0, "CLASSIFICATION_TYPE": "U", "NORAD_CAT_ID": 35997, "ELEMENT_SET_NO": 999, "REV_AT_EPOCH": 71087, "BSTAR": 0.00078489747, "MEAN_MOTION_DOT": 3.108e-05, "MEAN_MOTION_DDOT": 0}, "tle": {"line1": "1 35997U 93036AWP 25360.72800252  .00003108  00000+0  78490-3 0  9998", "line2": "2 35997  74.0424 160.9776 0015366 237.5823 122.3852 14.51384876710876"}}, "geometry": {"type": "Point", "coordinates": [-25.93030267559054, 19.493729083523835]}}, {"type": "Feature", "properties": {"norad_id": 36005, "name": "COSMOS 2251 DEB", "group": "cosmos-2251-debris", "lat": -16.279239460263813, "lon": 61.948371759317354, "alt_km": 773.1632014253628, "timestamp": "2025-12-27T07:26:25.617577+00:00", "meta": {"OBJECT_NAME": "COSMOS 2251 DEB", "OBJECT_ID": "1993-036AWX", "EPOCH": "2025-12-25T12:23:21.312096", "MEAN_MOTION": 14.47376705, "ECCENTRICITY": 0.0061491, "INCLINATION": 74.027, "RA_OF_ASC_NODE": 70.1013, "ARG_OF_PERICENTER": 204.7491, "MEAN_ANOMALY": 155.0716, "EPHEMERIS_TYPE": 0, "CLASSIFICATION_TYPE": "U", "NORAD_CAT_ID": 36005, "ELEMENT_SET_NO": 999, "REV_AT_EPOCH": 87769, "BSTAR": 0.00018917, "MEAN_MOTION_DOT": 6.81e-06, "MEAN_MOTION_DDOT": 0}, "tle": {"line1": "1 36005U 93036AWX 25359.51621889  .00000681  00000+0  18917-3 0  9992", "line2": "2 36005  74.0270  70.1013 0061491 204.7491 155.0716 14.47376705877692"}}, "geometry": {"type": "Point", "coordinates": [61.948371759317354, -16.279239460263813]}}, {"type": "Feature", "properties": {"norad_id": 36045, "name": "COSMOS 2251 DEB", "group": "cosmos-2251-debris", "lat": 32.26203547543443, "lon": -160.2315698853847, "alt_km": 667.87293886506, "timestamp": "2025-12-27T07:26:25.617587+00:00", "meta": {"OBJECT_NAME": "COSMOS 2251 DEB", "OBJECT_ID": "1993-036AXG", "EPOCH": "2025-12-25T18:51:09.820512", "MEAN_MOTION": 14.70126783, "ECCENTRICITY": 0.00481863, "INCLINATION": 73.7639, "RA_OF_ASC_NODE": 33.3725, "ARG_OF_PERICENTER": 42.7479, "MEAN_ANOMALY": 317.7422, "EPHEMERIS_TYPE": 0, "CLASSIFICATION_TYPE": "U", "NORAD_CAT_ID": 36045, "ELEMENT_SET_NO": 999, "REV_AT_EPOCH": 8580, "BSTAR": 0.0019792392, "MEAN_MOTION_DOT": 0.00012107, "MEAN_MOTION_DDOT": 0}, "tle": {"line1": "1 36045U 93036AXG 25359.78553033  .00012107  00000+0  19792-2 0  9997", "line2": "2 36045  73.7639  33.3725 0048186  42.7479 317.7422 14.70126783 85804"}}, "geometry": {"type": "Point", "coordinates": [-160.2315698853847, 32.26203547543443]}}, {"type": "Feature", "properties": {"norad_id": 36046, "name": "COSMOS 2251 DEB", "group": "cosmos-2251-debris", "lat": -39.08306103159797, "lon": -125.0375249212632, "alt_km": 669.184488668785, "timestamp": "2025-12-27T07:26:25.617597+00:00", "meta": {"OBJECT_NAME": "COSMOS 2251 DEB", "OBJECT_ID": "1993-036AXH", "EPOCH": "2025-12-26T11:06:22.807872", "MEAN_MOTION": 14.65349248, "ECCENTRICITY": 0.0056191, "INCLINATION": 74.0154, "RA_OF_ASC_NODE": 250.057, "ARG_OF_PERICENTER": 32.301, "MEAN_ANOMALY": 139.7691, "EPHEMERIS_TYPE": 0, "CLASSIFICATION_TYPE": "U", "NORAD_CAT_ID": 36046, "ELEMENT_SET_NO": 999, "REV_AT_EPOCH": 64204, "BSTAR": 0.00051321, "MEAN_MOTION_DOT": 2.805e-05, "MEAN_MOTION_DDOT": 0}, "tle": {"line1": "1 36046U 93036AXH 25360.46276398  .00002805  00000+0  51321-3 0  9990", "line2": "2 36046  74.0154 250.0570 0056191  32.3010 139.7691 14.65349248642040"}}, "geometry": {"type": "Point", "coordinates": [-125.0375249212632, -39.08306103159797]}}, {"type": "Feature", "properties": {"norad_id": 36047, "name": "COSMOS 2251 DEB", "group": "cosmos-2251-debris", "lat": 69.16805152003862, "lon": -6.490968417019746, "alt_km": 571.3379550858708, "timestamp": "2025-12-27T07:26:25.617607+00:00", "meta": {"OBJECT_NAME": "COSMOS 2251 DEB", "OBJECT_ID": "1993-036AXJ", "EPOCH": "2025-12-21T21:08:53.075040", "MEAN_MOTION": 14.96393257, "ECCENTRICITY": 0.000841, "INCLINATION": 74.036, "RA_OF_ASC_NODE": 315.6865, "ARG_OF_PERICENTER": 344.906, "MEAN_ANOMALY": 15.1873, "EPHEMERIS_TYPE": 0, "CLASSIFICATION_TYPE": "U", "NORAD_CAT_ID": 36047, "ELEMENT_SET_NO": 999, "REV_AT_EPOCH": 66076, "BSTAR": 0.0028311075, "MEAN_MOTION_DOT": 0.00032218, "MEAN_MOTION_DDOT": 0}, "tle": {"line1": "1 36047U 93036AXJ 25355.88116985  .00032218  00000+0  28311-2 0  9999", "line2": "2 36047  74.0360 315.6865 0008410 344.9060  15.1873 14.96393257660764"}}, "geometry": {"type": "Point", "coordinates": [-6.490968417019746, 69.16805152003862]}}]}